STARLINK-5587           
1 57245U 23094AD  26068.21349543 -.00001807  00000+0 -11873-3 0  9994
2 57245  43.0047  20.3132 0001086 272.5946  87.4772 15.02528428147198
STARLING 4              
1 57386U 23100A   26066.02836485 -.00000009  00000+0  55676-5 0  9994
2 57386  99.5115  59.9711 0007803  83.0949 277.1159 15.06148396144525
